NORAD_CAT_ID,OBJECT_NAME,OBJECT_TYPE,EPOCH,MEAN_MOTION,ECCENTRICITY,INCLINATION,RA_OF_ASC_NODE,ARG_OF_PERICENTER,MEAN_ANOMALY,BSTAR,MEAN_MOTION_DOT,MEAN_MOTION_DDOT,TLE_LINE0,TLE_LINE1,TLE_LINE2,SEMIMAJOR_AXIS,PERIOD,APOGEE,PERIGEE,DECAYED
55425.0,STARLINK-5615,PAYLOAD,2024-01-28 21:28:18,14.9833057,0.0002979,69.9992,227.9393,268.4096,91.6722,-3.3021e-05,-4.87e-06,0.0,0 STARLINK-5615,1 55425U 23014AL  24028.89465588 -.00000487  00000-0 -33021-4 0  9994,2 55425  69.9992 227.9393 0002979 268.4096  91.6722 14.98330570 56103,6950.191,96.107,574.127,569.986,0.0
55425.0,STARLINK-5615,PAYLOAD,2024-01-28 23:04:26,14.98330961,0.0002972,69.9993,227.7711,268.0231,92.0587,-2.7959e-05,-4.27e-06,0.0,0 STARLINK-5615,1 55425U 23014AL  24028.96141545 -.00000427  00000-0 -27959-4 0  9993,2 55425  69.9993 227.7711 0002972 268.0231  92.0587 14.98330961 56115,6950.19,96.107,574.121,569.989,0.0
55425.0,STARLINK-5615,PAYLOAD,2024-01-29 23:06:26,14.98331559,0.0003126,69.999,225.2463,270.1445,89.9356,6.2718e-05,6.55e-06,0.0,0 STARLINK-5615,1 55425U 23014AL  24029.96281169  .00000655  00000-0  62718-4 0  9994,2 55425  69.9990 225.2463 0003126 270.1445  89.9356 14.98331559 55327,6950.188,96.107,574.226,569.88,0.0
55425.0,STARLINK-5615,PAYLOAD,2024-01-30 13:31:39,14.98331665,0.0003073,69.999,223.7315,270.0644,90.0163,1.8451e-05,1.27e-06,0.0,0 STARLINK-5615,1 55425U 23014AL  24030.56365226  .00000127  00000-0  18451-4 0  9998,2 55425  69.9990 223.7315 0003073 270.0644  90.0163 14.98331665 56358,6950.188,96.107,574.189,569.917,0.0
55425.0,STARLINK-5615,PAYLOAD,2024-01-30 21:32:19,14.98332573,0.0003009,69.9993,222.89,270.7533,89.3282,3.0509e-05,2.71e-06,0.0,0 STARLINK-5615,1 55425U 23014AL  24030.89745084  .00000271  00000-0  30509-4 0  9996,2 55425  69.9993 222.8900 0003009 270.7533  89.3282 14.98332573 56402,6950.185,96.107,574.141,569.959,0.0
55425.0,STARLINK-5615,PAYLOAD,2024-01-30 23:08:27,14.98333018,0.0003,69.9993,222.7216,269.8021,90.2794,3.3701e-05,3.09e-06,0.0,0 STARLINK-5615,1 55425U 23014AL  24030.96421025  .00000309  00000-0  33701-4 0  9999,2 55425  69.9993 222.7216 0003000 269.8021  90.2794 14.98333018 55473,6950.184,96.107,574.134,569.964,0.0
55425.0,STARLINK-5615,PAYLOAD,2024-01-31 11:57:32,14.98331061,0.0002772,69.9998,221.3754,265.2104,94.8738,-4.4903e-05,-6.29e-06,0.0,0 STARLINK-5615,1 55425U 23014AL  24031.49829334 -.00000629  00000-0 -44903-4 0  9996,2 55425  69.9998 221.3754 0002772 265.2104  94.8738 14.98331061 56494,6950.19,96.107,573.981,570.128,0.0
55425.0,STARLINK-5615,PAYLOAD,2024-01-31 23:10:29,14.98327252,0.0002865,69.9996,220.1969,267.9281,92.155,-6.7169e-05,-8.94e-06,0.0,0 STARLINK-5615,1 55425U 23014AL  24031.96561629 -.00000894  00000-0 -67169-4 0  9991,2 55425  69.9996 220.1969 0002865 267.9281  92.1550 14.98327252 55629,6950.201,96.107,574.058,570.075,0.0
55425.0,STARLINK-5615,PAYLOAD,2024-02-01 23:12:29,14.98331273,0.0002898,69.9996,217.6721,269.3518,90.7309,-4.4511e-06,-1.46e-06,0.0,0 STARLINK-5615,1 55425U 23014AL  24032.96701195 -.00000146  00000-0 -44511-5 0  9993,2 55425  69.9996 217.6721 0002898 269.3518  90.7309 14.98331273 55771,6950.189,96.107,574.068,570.04,0.0
55425.0,STARLINK-5615,PAYLOAD,2024-02-02 13:37:42,14.98330424,0.0003067,69.9991,216.157,266.451,93.6298,6.0458e-06,-2.1e-07,0.0,0 STARLINK-5615,1 55425U 23014AL  24033.56785171 -.00000021  00000-0  60458-5 0  9995,2 55425  69.9991 216.1570 0003067 266.4510  93.6298 14.98330424 56802,6950.192,96.107,574.188,569.925,0.0
55425.0,STARLINK-5615,PAYLOAD,2024-02-02 21:38:22,14.98330631,0.0003034,69.9993,215.3154,270.7847,89.2965,5.7765e-05,5.96e-06,0.0,0 STARLINK-5615,1 55425U 23014AL  24033.90165007  .00000596  00000-0  57765-4 0  9995,2 55425  69.9993 215.3154 0003034 270.7847  89.2965 14.98330631 56855,6950.191,96.107,574.165,569.947,0.0
55425.0,STARLINK-5615,PAYLOAD,2024-02-03 12:03:35,14.98330223,0.0002904,69.9997,213.8006,270.7197,89.3629,-2.4311e-05,-3.83e-06,0.0,0 STARLINK-5615,1 55425U 23014AL  24034.50249335 -.00000383  00000-0 -24311-4 0  9996,2 55425  69.9997 213.8006 0002904 270.7197  89.3629 14.98330223 56003,6950.192,96.107,574.076,570.039,0.0
55425.0,STARLINK-5615,PAYLOAD,2024-02-03 13:39:43,14.98328891,0.0002935,69.9996,213.6329,270.5914,89.4909,-3.177e-05,-4.72e-06,0.0,0 STARLINK-5615,1 55425U 23014AL  24034.56925417 -.00000472  00000-0 -31770-4 0  9990,2 55425  69.9996 213.6329 0002935 270.5914  89.4909 14.98328891 56951,6950.196,96.107,574.101,570.021,0.0
55425.0,STARLINK-5615,PAYLOAD,2024-02-03 21:40:23,14.98327832,0.0002969,69.9996,212.7912,271.1598,88.9221,-3.7481e-05,-5.4e-06,0.0,0 STARLINK-5615,1 55425U 23014AL  24034.90305513 -.00000540  00000-0 -37481-4 0  9998,2 55425  69.9996 212.7912 0002969 271.1598  88.9221 14.98327832 57003,6950.2,96.107,574.128,570.001,0.0
55425.0,STARLINK-5615,PAYLOAD,2024-02-04 12:05:36,14.98332448,0.000306,69.9994,211.2758,270.9992,89.0817,-1.0725e-05,-2.21e-06,0.0,0 STARLINK-5615,1 55425U 23014AL  24035.50389119 -.00000221  00000-0 -10725-4 0  9997,2 55425  69.9994 211.2758 0003060 270.9992  89.0817 14.98332448 56158,6950.185,96.107,574.177,569.924,0.0
55425.0,STARLINK-5615,PAYLOAD,2024-02-04 13:41:44,14.98332415,0.0003064,69.9995,211.1075,270.8412,89.2396,-1.1241e-05,-2.27e-06,0.0,0 STARLINK-5615,1 55425U 23014AL  24035.57065109 -.00000227  00000-0 -11241-4 0  9994,2 55425  69.9995 211.1075 0003064 270.8412  89.2396 14.98332415 57104,6950.185,96.107,574.18,569.921,0.0
55425.0,STARLINK-5615,PAYLOAD,2024-02-04 21:42:24,14.98333912,0.0003062,69.9996,210.266,271.6421,88.4387,9.5644e-06,2.1e-07,0.0,0 STARLINK-5615,1 55425U 23014AL  24035.90444900  .00000021  00000-0  95644-5 0  9991,2 55425  69.9996 210.2660 0003062 271.6421  88.4387 14.98333912 57151,6950.181,96.107,574.174,569.918,0.0
55425.0,STARLINK-5615,PAYLOAD,2024-02-05 12:07:36,14.98330679,0.0003115,69.9996,208.751,273.8333,86.247,5.0229e-05,5.06e-06,0.0,0 STARLINK-5615,1 55425U 23014AL  24036.50528890  .00000506  00000-0  50229-4 0  9996,2 55425  69.9996 208.7510 0003115 273.8333  86.2470 14.98330679 56304,6950.191,96.107,574.221,569.891,0.0
55425.0,STARLINK-5615,PAYLOAD,2024-02-05 13:43:45,14.98330763,0.0003117,69.9996,208.5827,273.6224,86.4579,4.9597e-05,4.99e-06,0.0,0 STARLINK-5615,1 55425U 23014AL  24036.57204878  .00000499  00000-0  49597-4 0  9997,2 55425  69.9996 208.5827 0003117 273.6224  86.4579 14.98330763 57253,6950.191,96.107,574.222,569.889,0.0
55425.0,STARLINK-5615,PAYLOAD,2024-02-05 21:44:25,14.98332823,0.0003084,69.9998,207.7413,274.0126,86.068,6.8712e-05,7.27e-06,0.0,0 STARLINK-5615,1 55425U 23014AL  24036.90584650  .00000727  00000-0  68712-4 0  9997,2 55425  69.9998 207.7413 0003084 274.0126  86.0680 14.98332823 57300,6950.184,96.107,574.193,569.906,0.0
55425.0,STARLINK-5615,PAYLOAD,2024-02-06 12:09:37,14.98334128,0.0003127,69.9993,206.227,275.0923,84.9879,0.00011971,1.336e-05,0.0,0 STARLINK-5615,1 55425U 23014AL  24037.50668103  .00001336  00000-0  11971-3 0  9991,2 55425  69.9993 206.2270 0003127 275.0923  84.9879 14.98334128 56456,6950.18,96.107,574.218,569.872,0.0
55425.0,STARLINK-5615,PAYLOAD,2024-02-06 13:45:43,14.98359641,0.000285,70.0,206.0579,266.1167,93.9667,0.00028812,3.349e-05,0.0,0 STARLINK-5615,1 55425U 23014AL  24037.57342106  .00003349  00000-0  28812-3 0  9998,2 55425  70.0000 206.0579 0002850 266.1167  93.9667 14.98359641 57409,6950.101,96.105,573.947,569.985,0.0
55425.0,STARLINK-5615,PAYLOAD,2024-02-06 18:34:07,14.98353401,0.0002181,70.0031,205.5569,229.9896,130.1072,0.00027246,3.161e-05,0.0,0 STARLINK-5615,1 55425U 23014AL  24037.77370217  .00003161  00000-0  27246-3 0  9996,2 55425  70.0031 205.5569 0002181 229.9896 130.1072 14.98353401 56499,6950.121,96.105,573.501,570.47,0.0
55425.0,STARLINK-5615,PAYLOAD,2024-02-06 20:10:15,14.98363322,0.0002947,70.0001,205.3849,269.7379,90.3442,0.00031062,3.618e-05,0.0,0 STARLINK-5615,1 55425U 23014AL  24037.84045328  .00003618  00000-0  31062-3 0  9994,2 55425  70.0001 205.3849 0002947 269.7379  90.3442 14.98363322 57440,6950.09,96.105,574.003,569.907,0.0
55425.0,STARLINK-5615,PAYLOAD,2024-02-07 12:11:37,14.98334295,0.0003461,69.9999,203.7014,279.2882,80.7886,-5.2831e-05,-7.23e-06,0.0,0 STARLINK-5615,1 55425U 23014AL  24038.50807504 -.00000723  00000-0 -52831-4 0  9994,2 55425  69.9999 203.7014 0003461 279.2882  80.7886 14.98334295 56605,6950.18,96.107,574.45,569.639,0.0
55425.0,STARLINK-5615,PAYLOAD,2024-02-07 13:47:45,14.98332866,0.000363,69.9999,203.5329,280.459,79.616,-6.6637e-05,-8.88e-06,0.0,0 STARLINK-5615,1 55425U 23014AL  24038.57483602 -.00000888  00000-0 -66637-4 0  9991,2 55425  69.9999 203.5329 0003630 280.4590  79.6160 14.98332866 57559,6950.184,96.107,574.572,569.526,0.0
55425.0,STARLINK-5615,PAYLOAD,2024-02-07 18:36:10,14.98329278,0.0003461,69.9995,203.0284,275.357,84.7194,-0.00011964,-1.52e-05,0.0,0 STARLINK-5615,1 55425U 23014AL  24038.77511890 -.00001520  00000-0 -11964-3 0  9990,2 55425  69.9995 203.0284 0003461 275.3570  84.7194 14.98329278 56649,6950.195,96.107,574.466,569.655,0.0
55425.0,STARLINK-5615,PAYLOAD,2024-02-08 13:49:47,14.98337668,0.0003225,69.9998,201.0075,269.2258,90.8532,-0.00040463,-4.919e-05,0.0,0 STARLINK-5615,1 55425U 23014AL  24039.57624324 -.00004919  00000-0 -40463-3 0  9997,2 55425  69.9998 201.0075 0003225 269.2258  90.8532 14.98337668 57705,6950.169,96.107,574.276,569.793,0.0
55425.0,STARLINK-5615,PAYLOAD,2024-02-08 20:14:19,14.98337303,0.000316,70.0,200.3346,270.3724,89.7073,-0.00034443,-4.201e-05,0.0,0 STARLINK-5615,1 55425U 23014AL  24039.84328084 -.00004201  00000-0 -34443-3 0  9996,2 55425  70.0000 200.3346 0003160 270.3724  89.7073 14.98337303 56807,6950.17,96.107,574.232,569.839,0.0
55425.0,STARLINK-5615,PAYLOAD,2024-02-09 13:51:48,14.98318119,0.0003205,70.0002,198.4836,271.2541,88.8251,4.8377e-05,4.84e-06,0.0,0 STARLINK-5615,1 55425U 23014AL  24040.57764333  .00000484  00000-0  48377-4 0  9998,2 55425  70.0002 198.4836 0003205 271.2541  88.8251 14.98318119 57855,6950.23,96.108,574.322,569.867,0.0
